#aV2020  8 14  0  0  0.00000000     288 DD+AD WGS84 FIT  NGA
## 2118 432000.00000000   300.00000000 59075 0.0000000000000
+   31     1  2  3  4  5  6  7  8  9 10 11 12 13 15 16 17 18
+         19 20 21 22 23 24 25 26 27 28 29 30 31 32  0  0  0
+          0  0  0  0  0  0  0  0  0  0  0  0  0  0  0  0  0
+          0  0  0  0  0  0  0  0  0  0  0  0  0  0  0  0  0
+          0  0  0  0  0  0  0  0  0  0  0  0  0  0  0  0  0
++         2  2  2  2  2  2  2  2  2  2  2  2  2  2  2  2  2
++         2  2  2  2  2  2  2  2  2  2  2  2  2  2  0  0  0
++         0  0  0  0  0  0  0  0  0  0  0  0  0  0  0  0  0
++         0  0  0  0  0  0  0  0  0  0  0  0  0  0  0  0  0
++         0  0  0  0  0  0  0  0  0  0  0  0  0  0  0  0  0
%c cc cc ccc ccc cccc cccc cccc cccc ccccc ccccc ccccc ccccc
%c cc cc ccc ccc cccc cccc cccc cccc ccccc ccccc ccccc ccccc
%f  0.0000000  0.000000000  0.00000000000  0.000000000000000
%f  0.0000000  0.000000000  0.00000000000  0.000000000000000
%i    0    0    0    0      0      0      0      0         0
%i    0    0    0    0      0      0      0      0         0
/*      NGA, ST. LOUIS,MO.                                  
/*   EPHEMERIS COMPUTED FROM 2 DAYS OF DATA                 
/*   EPOCHA v5 SMOOTHER                                     
/*   G1762 IERS2010 SATAF SATAPC                            
*  2020  8 14  3  5  0.00000000
P  1 -21244.011425 -13591.816965   8615.575244     33.632006                    
V  1  -6477.890078  -9253.924725 -29436.101984      0.021588                    
P  2  11444.318116  21182.278321  11898.662487   -501.852448                    
V  2 -12052.550118  -7674.335918  26667.436776     -0.054559                    
P  3 -14077.672142  -5478.733870  21775.953148   -269.365282                    
V  3   7499.518746 -26773.912809  -1780.202071     -0.110835                    
P  4 -24553.063107  -1651.780403  10049.183087   -124.233502                    
V  4  11871.126038  -5243.597088  28135.489997     -0.043640                    
P  5   3674.680193  23050.570170 -12637.949248    -18.777383                    
V  5  -6227.575112  14856.762236  25778.127119     -0.008407                    
P  6  -1090.037632  17747.240989  19766.095818   -315.265403                    
V  6 -18235.664595 -17058.218218  14384.268005     -0.042397                    
P  7 -17495.332770   2057.222449 -19696.684852   -349.693574                    
V  7 -17026.487670 -19152.676749  12430.746663     -0.084601                    
P  8 -17393.627361  -8264.644989 -18394.161331    -44.384361                    
V  8  22077.470902  -7429.907833 -17274.157036     -0.012773                    
P  9 -25348.732190   7885.780733  -1135.590965   -269.997615                    
V  9  -2148.224520  -2571.100168  31525.700357     -0.060568                    
P 10  11634.612719 -22415.727348  -7718.448731   -427.041906                    
V 10    -39.098680  10332.369254 -29968.518863     -0.102734                    
P 11 -22528.219704 -12490.726736  -6173.627675   -193.344694                    
V 11   8366.106257  -1799.833875 -29518.629351      0.106108                    
P 12  12989.739273   7294.111969  21764.363900     80.868822                    
V 12  -9522.201152  26477.751668  -3013.305272     -0.049487                    
P 13   8700.886252  13614.329638 -21220.164531     35.619950                    
V 13 -26329.911602   3972.799433  -8191.744153      0.034640                    
P 15  18903.565695   7052.448468 -17782.133759   -210.766090                    
V 15 -19827.385590   9499.103677 -17258.845161      0.025886                    
P 16  -3155.046288 -21299.307945 -15459.207344   -195.425929                    
V 16   8531.273756 -17509.444761  23136.178707     -0.049299                    
P 17 -15665.468978  14266.870060  16412.933101    310.727760                    
V 17 -19888.254939   2635.350713 -21883.718677      0.056440                    
P 18  16761.474632  -2856.162974 -20428.197649    269.321090                    
V 18  17055.419620  19495.980252  11237.821191      0.082307                    
P 19  -8714.783747  14805.966010  19942.677320   -118.754756                    
V 19 -25792.458644   2954.654532 -13321.733980      0.050623                    
P 20  14776.933193 -13492.559803 -17428.428221    527.043917                    
V 20   -731.928607  22249.677240 -18162.099369     -0.001032                    
P 21  -4642.358894 -19771.505012 -16550.177747     35.399869                    
V 21  18025.993942  13327.417714 -19787.122069      0.043904                    
P 22 -12238.740191 -13621.578562  19489.318923   -764.307264                    
V 22   5778.837887 -23724.690145 -12939.413937      0.032732                    
P 23  15079.652312 -15266.096524 -15678.315777     38.822712                    
V 23  -2921.247025  19734.503695 -22072.558636      0.117122                    
P 24  21982.901392  14108.383316   5601.324828    -17.109824                    
V 24   3323.956379   7264.967615 -29871.648661     -0.005336                    
P 25  16001.909402  -5283.877332  20228.893456     35.152778                    
V 25  -5897.481557  25629.390300  11480.454336      0.048138                    
P 26   4446.182970 -25960.307895  -2298.944604    260.931090                    
V 26   4050.376276  -2027.148348  31385.793773      0.066352                    
P 27  -6095.869110 -13760.798552 -22048.821962   -370.582539                    
V 27  26660.228357  -7032.138277  -2676.333243     -0.093018                    
P 28 -12469.049182  22786.058027  -5325.441111    689.757884                    
V 28    573.751082  -7770.156146 -31052.383525     -0.038870                    
P 29  26265.296816  -3301.049493   2411.799281   -172.248366                    
V 29  -2684.306463   2523.952535  32070.406311     -0.083246                    
P 30  -9851.985157  12350.947829 -21284.554355   -281.806720                    
V 30 -18820.066592 -19716.468378  -2940.729697     -0.074321                    
P 31    227.335515 -18835.111870  18492.608110    -62.033611                    
V 31  17537.942981  16121.679679  16613.258391     -0.024612                    
P 32  14168.147036 -15598.131777  16164.034785    332.270735                    
V 32  20263.367481  -3336.520602 -21241.180393      0.054858                    
EOF
